[{"OBJECT_NAME":"STARLINK-30770","OBJECT_ID":"2023-162Q","EPOCH":"2026-03-09T22:00:01.999584","MEAN_MOTION":15.24100693,"ECCENTRICITY":0.0001196,"INCLINATION":43.0011,"RA_OF_ASC_NODE":131.178,"ARG_OF_PERICENTER":269.1911,"MEAN_ANOMALY":28.4248,"EPHEMERIS_TYPE":0,"CLASSIFICATION_TYPE":"U","NORAD_CAT_ID":58132,"ELEMENT_SET_NO":999,"REV_AT_EPOCH":572,"BSTAR":0.047198157,"MEAN_MOTION_DOT":0.0128197,"MEAN_MOTION_DDOT":0},{"OBJECT_NAME":"CZ-6A DEB","OBJECT_ID":"2024-140GE","EPOCH":"2026-03-09T23:15:37.114848","MEAN_MOTION":15.28179091,"ECCENTRICITY":0.00907227,"INCLINATION":89.625,"RA_OF_ASC_NODE":325.5051,"ARG_OF_PERICENTER":77.5431,"MEAN_ANOMALY":283.5952,"EPHEMERIS_TYPE":0,"CLASSIFICATION_TYPE":"U","NORAD_CAT_ID":60803,"ELEMENT_SET_NO":999,"REV_AT_EPOCH":8608,"BSTAR":0.0028689301,"MEAN_MOTION_DOT":0.00089907,"MEAN_MOTION_DDOT":0}]
